STARLINK-5232           
1 55675U 23021AZ  23064.91667824 -.00906179  00000+0 -80205-2 0  9994
2 55675  69.9933 104.5241 0003673 268.3612 145.2896 15.70990741  1305
STARLINK-5300           
1 55676U 23021BA  23064.91667824 -.00903538  00000+0 -79730-2 0  9992
2 55676  69.9927 104.5202 0003650 268.1926 148.9048 15.71055000  1307
STARLINK-5324           
1 55677U 23021BB  23064.91667824 -.00911729  00000+0 -80485-2 0  9993
2 55677  69.9924 104.5194 0003664 270.4228 147.2505 15.71069098  1303
STARLINK-5314           
1 55678U 23021BC  23064.91667824 -.00738354  00000+0 -64354-2 0  9992
2 55678  69.9938 104.5228 0003098 265.9908 148.8786 15.70881290  1305
INMARSAT 6-F2           
1 55683U 23022A   23063.05648419  .00000308  00000+0  16062-2 0  9994
2 55683  26.8672  48.4156 7525449 172.0841 216.5036  1.91370155   215
FALCON 9 R/B            
1 55684U 23022B   23064.56648447  .00009850  00000+0  18175-2 0  9991
2 55684  27.0693  47.7179 7583675 173.1852 212.1336  1.92519491   278
DRUMS TARGET-1          
1 55685U 21102M   23064.86957308  .00023083  00000+0  16217-2 0  9990
2 55685  97.5016 121.3568 0021109  54.8935 305.4462 15.04936237  2345
CHINASAT 26 (ZX 26)     
1 55686U 23023A   23064.93654920 -.00000357  00000+0  00000+0 0  9997
2 55686   0.0297  45.8943 0002748   8.2635 211.4738  1.00274096   216
CZ-3B R/B               
1 55687U 23023B   23061.40813264 -.00000524  00000+0  00000+0 0  9991
2 55687  27.9161 324.6419 7217964 183.3818 156.7142  2.38350335   161
SOYUZ-MS 23             
1 55688U 23024A   23064.65729714  .00022759  00000+0  40953-3 0  9997
2 55688  51.6409 121.3668 0005874  58.8594  79.4424 15.49713298385734
2023-025A               
1 55690U 23025A   23064.82266058  .00014248  00000+0  60355-3 0  9999
2 55690  97.4723 138.6932 0011779 205.1470 266.7261 15.23204186  1457
2023-025B               
1 55691U 23025B   23064.79738388  .00011045  00000+0  52163-3 0  9996
2 55691  97.6012 138.8923 0065638 249.4931 247.6866 15.17669730  1440
2023-025C               
1 55692U 23025C   23064.79002440  .00098045  00000+0  45915-2 0  9991
2 55692  97.6531 138.7136 0091704 195.2154 164.6634 15.15598299  1462
2023-025D               
1 55693U 23025D   23064.79314996  .00110606  00000+0  52050-2 0  9990
2 55693  97.2433 138.3119 0093164 194.5140 165.2689 15.15266823  1446
2023-025E               
1 55694U 23025E   23063.78202183 -.00000058  00000+0  00000+0 0  9998
2 55694  97.2683 137.0374 0161267 138.6310 347.0879 14.87315319  1287
STARLINK-30050          
1 55695U 23026A   23064.91667824  .00017126  00000+0  19298-3 0  9999
2 55695  43.0024 247.7546 0001662 264.7450 280.4450 15.62246582  1301
STARLINK-30038          
1 55696U 23026B   23064.91667824  .00003348  00000+0  41278-4 0  9995
2 55696  43.0023 247.7508 0001528 271.3679 275.5074 15.62269904  1307
STARLINK-30040          
1 55697U 23026C   23064.91667824  .00021070  00000+0  23618-3 0  9995
2 55697  43.0024 247.7469 0001503 272.9192 275.6434 15.62259601  1309
STARLINK-30061          
1 55698U 23026D   23064.91667824 -.00000391  00000+0  71552-7 0  9994
2 55698  43.0023 247.7426 0001144 268.6723 281.5851 15.62253838  1300
STARLINK-30055          
1 55699U 23026E   23064.91667824  .00068426  00000+0  75302-3 0  9990
2 55699  43.0039 247.7054 0001761 272.2100 293.4437 15.62250742  1303
STARLINK-30064          
1 55700U 23026F   23064.91667824  .00037885  00000+0  42017-3 0  9995
2 55700  43.0058 247.7012 0001778 278.2802 289.0925 15.62268157  1306
STARLINK-30065          
1 55701U 23026G   23065.00001157  .00077197  00000+0  84793-3 0  9995
2 55701  43.0054 247.2003 0001786 277.1274  41.2226 15.62254770  1979
STARLINK-30042          
1 55702U 23026H   23064.91667824  .00076665  00000+0  84226-3 0  9994
2 55702  43.0059 247.6928 0001837 276.6094 294.1985 15.62252239  1302
STARLINK-30044          
1 55703U 23026J   23064.91667824  .00101615  00000+0  11127-2 0  9998
2 55703  43.0081 247.6886 0001403 276.5822 295.9733 15.62225073  1304
STARLINK-30051          
1 55704U 23026K   23065.00001157  .00072647  00000+0  79842-3 0  9992
2 55704  43.0076 247.1879 0002265 271.6866  51.8114 15.62261830  1973
STARLINK-30057          
1 55705U 23026L   23064.91667824  .00078693  00000+0  86417-3 0  9994
2 55705  43.0083 247.6803 0001474 273.3482 302.6185 15.62253646  1306
STARLINK-30054          
1 55706U 23026M   23065.00001157  .00066322  00000+0  72969-3 0  9990
2 55706  43.0077 247.1798 0001782 276.9550  49.9767 15.62268498  1976
STARLINK-30060          
1 55707U 23026N   23065.00001157  .00032192  00000+0  35770-3 0  9998
2 55707  43.0079 247.1756 0001814 277.8589  50.7885 15.62284792  1977
STARLINK-30058          
1 55708U 23026P   23065.00001157 -.00106262  00000+0 -11781-2 0  9996
2 55708  43.0094 247.1713 0001630 273.7375  56.5878 15.62368246  1975
STARLINK-30047          
1 55709U 23026Q   23064.91667824 -.00574233  00000+0 -66600-2 0  9992
2 55709  43.0098 247.6645 0001617 283.4417 299.0941 15.62752417  1308
STARLINK-30046          
1 55710U 23026R   23064.91667824 -.00755192  00000+0 -88811-2 0  9997
2 55710  43.0098 247.6608 0001669 278.8638 305.1885 15.62969148  1306
STARLINK-30048          
1 55711U 23026S   23064.91667824 -.00787238  00000+0 -92382-2 0  9992
2 55711  43.0098 247.6570 0001366 275.1961 310.3470 15.63127074  1301
STARLINK-30037          
1 55712U 23026T   23064.91667824 -.00770669  00000+0 -89714-2 0  9998
2 55712  43.0104 247.6533 0001479 274.6832 312.2905 15.63276422  1301
STARLINK-30063          
1 55713U 23026U   23064.91667824 -.00792095  00000+0 -91326-2 0  9998
2 55713  43.0103 247.6467 0001406 275.5906 314.1162 15.63586725  1305
STARLINK-30059          
1 55714U 23026V   23064.91667824 -.00790846  00000+0 -91732-2 0  9992
2 55714  43.0103 247.6499 0001439 277.2888 311.0826 15.63431206  1301
STARLINK-30062          
1 55715U 23026W   23064.91667824 -.00932864  00000+0 -99238-2 0  9990
2 55715  43.0100 247.6138 0001595 275.7437 329.3851 15.65594541  1309
SS3 DEB                 
1 55737U 23019H   23060.08618434  .01518306  00000+0  62218-2 0  9991
2 55737  37.2095 351.4439 0042986 169.8087 190.3566 15.80747129  2659
SS3 DEB                 
1 55738U 23019J   23062.12294773  .00524338  00000+0  50146-2 0  9993
2 55738  37.1899 340.0103 0040007 179.9437 180.1339 15.63208805  2925
SS3 DEB                 
1 55739U 23019K   23061.14607851  .00641259  00000+0  42720-2 0  9991
2 55739  37.1980 345.1153 0052018 172.5715 187.5835 15.70902945  3085
CREW DRAGON 6           
1 55740U 23027A   23064.65729714  .00022759  00000+0  40953-3 0  9999
2 55740  51.6409 121.3668 0005874  58.8594  79.4424 15.49713298385733
